[{"OBJECT_NAME":"OBJECT D","OBJECT_ID":"2024-092D","EPOCH":"2026-03-09T21:12:33.501312","MEAN_MOTION":15.33078357,"ECCENTRICITY":0.00083397,"INCLINATION":97.6418,"RA_OF_ASC_NODE":198.2302,"ARG_OF_PERICENTER":141.9853,"MEAN_ANOMALY":218.1979,"EPHEMERIS_TYPE":0,"CLASSIFICATION_TYPE":"U","NORAD_CAT_ID":59776,"ELEMENT_SET_NO":999,"REV_AT_EPOCH":10051,"BSTAR":0.00076511005,"MEAN_MOTION_DOT":0.00024443,"MEAN_MOTION_DDOT":0},{"OBJECT_NAME":"STARLINK-36079","OBJECT_ID":"2025-283V","EPOCH":"2026-03-09T04:21:44.006976","MEAN_MOTION":15.30145991,"ECCENTRICITY":0.00011773,"INCLINATION":53.1607,"RA_OF_ASC_NODE":26.7195,"ARG_OF_PERICENTER":62.3626,"MEAN_ANOMALY":297.7495,"EPHEMERIS_TYPE":0,"CLASSIFICATION_TYPE":"U","NORAD_CAT_ID":66897,"ELEMENT_SET_NO":999,"REV_AT_EPOCH":1575,"BSTAR":0.0010320877,"MEAN_MOTION_DOT":0.00030282,"MEAN_MOTION_DDOT":0}]
